NORAD_CAT_ID,OBJECT_NAME,OBJECT_TYPE,EPOCH,MEAN_MOTION,ECCENTRICITY,INCLINATION,RA_OF_ASC_NODE,ARG_OF_PERICENTER,MEAN_ANOMALY,BSTAR,MEAN_MOTION_DOT,MEAN_MOTION_DDOT,TLE_LINE0,TLE_LINE1,TLE_LINE2,SEMIMAJOR_AXIS,PERIOD,APOGEE,PERIGEE,DECAYED
52479.0,STARLINK-3878,PAYLOAD,2023-09-14 03:44:21,15.08850076,0.0001201,53.2171,163.1692,87.6236,272.4894,9.5017e-05,1.225e-05,0.0,0 STARLINK-3878,1 52479U 22049AE  23257.15580596  .00001225  00000-0  95017-4 0  9998,2 52479  53.2171 163.1692 0001201  87.6236 272.4894 15.08850076 76629,6917.85,95.437,540.545,538.884,0.0
52479.0,STARLINK-3878,PAYLOAD,2023-09-14 21:13:37,15.08839522,0.0001287,53.2173,159.8974,84.2239,275.89,-7.1615e-05,-1.427e-05,0.0,0 STARLINK-3878,1 52479U 22049AE  23257.88446206 -.00001427  00000-0 -71615-4 0  9991,2 52479  53.2173 159.8974 0001287  84.2239 275.8900 15.08839522 76736,6917.882,95.438,540.637,538.857,0.0
52479.0,STARLINK-3878,PAYLOAD,2023-09-15 03:35:09,15.08841225,0.0001404,53.2175,158.7087,88.0163,272.099,-5.562e-05,-1.173e-05,0.0,0 STARLINK-3878,1 52479U 22049AE  23258.14942077 -.00001173  00000-0 -55620-4 0  9994,2 52479  53.2175 158.7087 0001404  88.0163 272.0990 15.08841225 75695,6917.877,95.437,540.713,538.77,0.0
52479.0,STARLINK-3878,PAYLOAD,2023-09-16 00:15:10,15.08845521,0.0001344,53.2169,154.8441,94.8879,265.2267,7.5071e-05,9.07e-06,0.0,0 STARLINK-3878,1 52479U 22049AE  23259.01053570  .00000907  00000-0  75071-4 0  9996,2 52479  53.2169 154.8441 0001344  94.8879 265.2267 15.08845521 75820,6917.864,95.437,540.658,538.799,0.0
52479.0,STARLINK-3878,PAYLOAD,2023-09-17 01:41:21,15.08834197,0.0001467,53.2168,150.0871,95.6702,264.4458,0.00011666,1.569e-05,0.0,0 STARLINK-3878,1 52479U 22049AE  23260.07038614  .00001569  00000-0  11666-3 0  9990,2 52479  53.2168 150.0871 0001467  95.6702 264.4458 15.08834197 75981,6917.898,95.438,540.778,538.748,0.0
52479.0,STARLINK-3878,PAYLOAD,2023-09-17 03:16:44,15.08838544,0.0001405,53.2165,149.7888,88.6261,271.4892,0.00012535,1.707e-05,0.0,0 STARLINK-3878,1 52479U 22049AE  23260.13662407  .00001707  00000-0  12535-3 0  9990,2 52479  53.2165 149.7888 0001405  88.6261 271.4892 15.08838544 77077,6917.885,95.438,540.722,538.778,0.0
52479.0,STARLINK-3878,PAYLOAD,2023-09-17 23:56:44,15.0884809,0.0001427,53.217,145.9226,87.7812,272.3344,9.6536e-05,1.249e-05,0.0,0 STARLINK-3878,1 52479U 22049AE  23260.99773977  .00001249  00000-0  96536-4 0  9994,2 52479  53.2170 145.9226 0001427  87.7812 272.3344 15.08848090 76127,6917.856,95.437,540.708,538.733,0.0
52479.0,STARLINK-3878,PAYLOAD,2023-09-18 20:36:45,15.08835171,0.0001368,53.2162,142.0577,94.7705,265.3443,0.00018079,2.59e-05,0.0,0 STARLINK-3878,1 52479U 22049AE  23261.85886435  .00002590  00000-0  18079-3 0  9999,2 52479  53.2162 142.0577 0001368  94.7705 265.3443 15.08835171 77330,6917.895,95.438,540.707,538.814,0.0
52479.0,STARLINK-3878,PAYLOAD,2023-09-19 01:22:54,15.08851197,0.0001327,53.2171,141.1647,82.6756,277.4387,0.00013697,1.893e-05,0.0,0 STARLINK-3878,1 52479U 22049AE  23262.05757616  .00001893  00000-0  13697-3 0  9996,2 52479  53.2171 141.1647 0001327  82.6756 277.4387 15.08851197 76285,6917.846,95.437,540.629,538.793,0.0
52479.0,STARLINK-3878,PAYLOAD,2023-09-19 15:41:22,15.08846984,0.0001233,53.2167,138.4884,88.4346,271.6787,0.00012656,1.727e-05,0.0,0 STARLINK-3878,1 52479U 22049AE  23262.65373636  .00001727  00000-0  12656-3 0  9998,2 52479  53.2167 138.4884 0001233  88.4346 271.6787 15.08846984 76375,6917.859,95.437,540.577,538.871,0.0
52479.0,STARLINK-3878,PAYLOAD,2023-09-20 01:13:41,15.08858009,0.0001329,53.2154,136.7051,78.2381,281.876,0.00020518,2.981e-05,0.0,0 STARLINK-3878,1 52479U 22049AE  23263.05116980  .00002981  00000-0  20518-3 0  9999,2 52479  53.2154 136.7051 0001329  78.2381 281.8760 15.08858009 76432,6917.825,95.436,540.61,538.771,0.0
52479.0,STARLINK-3878,PAYLOAD,2023-09-20 09:10:37,15.08844249,0.0001407,53.2166,135.217,89.9348,270.1805,1.0904e-05,-1.14e-06,0.0,0 STARLINK-3878,1 52479U 22049AE  23263.38237533 -.00000114  00000-0  10904-4 0  9999,2 52479  53.2166 135.2170 0001407  89.9348 270.1805 15.08844249 76487,6917.867,95.437,540.706,538.759,0.0
52479.0,STARLINK-3878,PAYLOAD,2023-09-20 18:42:57,15.08824748,0.0001615,53.2164,133.4325,103.7922,256.3249,-0.00026909,-4.566e-05,0.0,0 STARLINK-3878,1 52479U 22049AE  23263.77982857 -.00004566  00000-0 -26909-3 0  9995,2 52479  53.2164 133.4325 0001615 103.7922 256.3249 15.08824748 76548,6917.927,95.439,540.909,538.675,0.0
52479.0,STARLINK-3878,PAYLOAD,2023-09-20 21:53:43,15.08823604,0.000161,53.2162,132.8388,100.9309,259.1864,-0.00026028,-4.426e-05,0.0,0 STARLINK-3878,1 52479U 22049AE  23263.91231076 -.00004426  00000-0 -26028-3 0  9998,2 52479  53.2162 132.8388 0001610 100.9309 259.1864 15.08823604 77647,6917.931,95.439,540.909,538.682,0.0
52479.0,STARLINK-3878,PAYLOAD,2023-09-21 01:04:30,15.08826228,0.0001589,53.2174,132.2421,105.6472,254.4696,-0.00014375,-2.574e-05,0.0,0 STARLINK-3878,1 52479U 22049AE  23264.04479732 -.00002574  00000-0 -14375-3 0  9990,2 52479  53.2174 132.2421 0001589 105.6472 254.4696 15.08826228 77668,6917.922,95.438,540.887,538.688,0.0
52479.0,STARLINK-3878,PAYLOAD,2023-09-21 18:33:44,15.08844448,0.0001526,53.2179,128.9705,116.559,243.5559,-8.2512e-05,-1.601e-05,0.0,0 STARLINK-3878,1 52479U 22049AE  23264.77342683 -.00001601  00000-0 -82512-4 0  9993,2 52479  53.2179 128.9705 0001526 116.5590 243.5559 15.08844448 76696,6917.867,95.437,540.787,538.676,0.0
52479.0,STARLINK-3878,PAYLOAD,2023-09-22 21:35:17,15.08845989,0.000156,53.2157,123.9176,89.052,271.0651,0.00044472,6.798e-05,0.0,0 STARLINK-3878,1 52479U 22049AE  23265.89951158  .00006798  00000-0  44472-3 0  9992,2 52479  53.2157 123.9176 0001560  89.0520 271.0651 15.08845989 77943,6917.862,95.437,540.806,538.648,0.0
52479.0,STARLINK-3878,PAYLOAD,2023-09-23 18:15:18,15.088448,0.0001399,53.2158,120.0517,96.0497,264.0655,9.5845e-05,1.238e-05,0.0,0 STARLINK-3878,1 52479U 22049AE  23266.76063062  .00001238  00000-0  95845-4 0  9992,2 52479  53.2158 120.0517 0001399  96.0497 264.0655 15.08844800 76993,6917.866,95.437,540.699,538.763,0.0
52479.0,STARLINK-3878,PAYLOAD,2023-09-24 13:19:55,15.08843829,0.0001223,53.2153,116.4841,84.9659,275.1473,3.504e-05,2.7e-06,0.0,0 STARLINK-3878,1 52479U 22049AE  23267.55550876  .00000270  00000-0  35040-4 0  9990,2 52479  53.2153 116.4841 0001223  84.9659 275.1473 15.08843829 78194,6917.869,95.437,540.58,538.888,0.0
52479.0,STARLINK-3878,PAYLOAD,2023-09-24 19:41:28,15.08842719,0.0001315,53.216,115.2946,84.2399,275.8743,6.4021e-06,-1.86e-06,0.0,0 STARLINK-3878,1 52479U 22049AE  23267.82047025 -.00000186  00000-0  64021-5 0  9996,2 52479  53.2160 115.2946 0001315  84.2399 275.8743 15.08842719 77150,6917.872,95.437,540.647,538.827,0.0
52479.0,STARLINK-3878,PAYLOAD,2023-09-24 21:16:51,15.0884523,0.000125,53.2155,114.9968,81.545,278.5684,4.7261e-05,4.64e-06,0.0,0 STARLINK-3878,1 52479U 22049AE  23267.88670894  .00000464  00000-0  47261-4 0  9992,2 52479  53.2155 114.9968 0001250  81.5450 278.5684 15.08845230 78246,6917.864,95.437,540.594,538.865,0.0
52479.0,STARLINK-3878,PAYLOAD,2023-09-25 06:49:10,15.08845532,0.0001303,53.2159,113.2112,86.7181,273.396,4.4381e-05,4.19e-06,0.0,0 STARLINK-3878,1 52479U 22049AE  23268.28414741  .00000419  00000-0  44381-4 0  9994,2 52479  53.2159 113.2112 0001303  86.7181 273.3960 15.08845532 78302,6917.863,95.437,540.63,538.827,0.0
52479.0,STARLINK-3878,PAYLOAD,2023-09-25 21:07:38,15.08851528,0.0001269,53.2156,110.5347,79.6942,280.4194,0.00019976,2.894e-05,0.0,0 STARLINK-3878,1 52479U 22049AE  23268.88030520  .00002894  00000-0  19976-3 0  9999,2 52479  53.2156 110.5347 0001269  79.6942 280.4194 15.08851528 78395,6917.845,95.437,540.588,538.832,0.0
52479.0,STARLINK-3878,PAYLOAD,2023-09-26 13:01:30,15.08834944,0.0001217,53.2154,107.5612,94.4131,265.7,-2.1089e-05,-6.23e-06,0.0,0 STARLINK-3878,1 52479U 22049AE  23269.54271367 -.00000623  00000-0 -21089-4 0  9998,2 52479  53.2154 107.5612 0001217  94.4131 265.7000 15.08834944 78498,6917.896,95.438,540.603,538.919,0.0
52479.0,STARLINK-3878,PAYLOAD,2023-09-26 19:23:03,15.08836667,0.0001365,53.2151,106.3718,86.5145,273.6004,4.924e-05,4.96e-06,0.0,0 STARLINK-3878,1 52479U 22049AE  23269.80767480  .00000496  00000-0  49240-4 0  9998,2 52479  53.2151 106.3718 0001365  86.5145 273.6004 15.08836667 77451,6917.891,95.438,540.7,538.811,0.0
52479.0,STARLINK-3878,PAYLOAD,2023-09-26 20:58:26,15.0883821,0.000139,53.2152,106.0744,84.4044,275.7107,8.9813e-05,1.142e-05,0.0,0 STARLINK-3878,1 52479U 22049AE  23269.87391479  .00001142  00000-0  89813-4 0  9995,2 52479  53.2152 106.0744 0001390  84.4044 275.7107 15.08838210 78545,6917.886,95.438,540.712,538.789,0.0
52479.0,STARLINK-3878,PAYLOAD,2023-09-27 06:30:48,15.08779793,0.0001961,53.2156,104.2916,67.8896,292.2304,-0.00082962,-0.00013446,0.0,0 STARLINK-3878,1 52479U 22049AE  23270.27138957 -.00013446  00000-0 -82962-3 0  9990,2 52479  53.2156 104.2916 0001961  67.8896 292.2304 15.08779793 77524,6918.064,95.441,541.286,538.573,0.0
52479.0,STARLINK-3878,PAYLOAD,2023-09-27 12:52:28,15.0860337,0.000205,53.2151,103.1024,98.9246,261.1978,-0.0037942,-0.00059787,0.0,0 STARLINK-3878,1 52479U 22049AE  23270.53643901 -.00059787  00000-0 -37942-2 0  9994,2 52479  53.2151 103.1024 0002050  98.9246 261.1978 15.08603370 78644,6918.604,95.453,541.887,539.05,0.0
52479.0,STARLINK-3878,PAYLOAD,2023-09-27 20:49:39,15.08317322,0.0001245,53.2158,101.6162,109.5795,250.5332,-0.0080756,-0.00124795,0.0,0 STARLINK-3878,1 52479U 22049AE  23270.86781996 -.00124795  00000-0 -80756-2 0  9990,2 52479  53.2158 101.6162 0001245 109.5795 250.5332 15.08317322 77611,6919.478,95.471,542.205,540.482,0.0
52479.0,STARLINK-3878,PAYLOAD,2023-09-28 04:46:52,15.08138152,0.0001612,53.216,100.1305,61.9393,298.1762,-0.0091852,-0.00140898,0.0,0 STARLINK-3878,1 52479U 22049AE  23271.19921703 -.00140898  00000-0 -91852-2 0  9990,2 52479  53.2160 100.1305 0001612  61.9393 298.1762 15.08138152 77662,6920.026,95.482,543.007,540.776,0.0
